{
  "type": "FeatureCollection",
  "generator": "overpass-turbo",
  "copyright": "The data included in this document is from www.openstreetmap.org. The data is made available under ODbL.",
  "timestamp": "2026-05-01T14:37:53Z",
  "features": [
    {
      "type": "Feature",
      "properties": {
        "@id": "way/403949107",
        "amenity": "parking"
      },
      "geometry": {
        "type": "Polygon",
        "coordinates": [
          [
            [
              105.2659146,
              -5.4093578
            ],
            [
              105.2658945,
              -5.4094286
            ],
            [
              105.265873,
              -5.4095127
            ],
            [
              105.266494,
              -5.4096956
            ],
            [
              105.2665543,
              -5.4097103
            ],
            [
              105.2665872,
              -5.4094777
            ],
            [
              105.2659146,
              -5.4093578
            ]
          ]
        ]
      },
      "id": "way/403949107"
    },
    {
      "type": "Feature",
      "properties": {
        "@id": "way/405097483",
        "amenity": "parking"
      },
      "geometry": {
        "type": "Polygon",
        "coordinates": [
          [
            [
              105.2635188,
              -5.4301294
            ],
            [
              105.2636629,
              -5.429847
            ],
            [
              105.2635208,
              -5.4297696
            ],
            [
              105.263494,
              -5.4297442
            ],
            [
              105.2635047,
              -5.4296214
            ],
            [
              105.2634805,
              -5.4296027
            ],
            [
              105.2632633,
              -5.4295053
            ],
            [
              105.2630205,
              -5.4298711
            ],
            [
              105.2630594,
              -5.4298791
            ],
            [
              105.2635188,
              -5.4301294
            ]
          ]
        ]
      },
      "id": "way/405097483"
    },
    {
      "type": "Feature",
      "properties": {
        "@id": "way/557322745",
        "amenity": "parking"
      },
      "geometry": {
        "type": "Polygon",
        "coordinates": [
          [
            [
              105.2592698,
              -5.4083595
            ],
            [
              105.2591113,
              -5.408798
            ],
            [
              105.2595432,
              -5.4087793
            ],
            [
              105.2595862,
              -5.4085226
            ],
            [
              105.2592698,
              -5.4083595
            ]
          ]
        ]
      },
      "id": "way/557322745"
    },
    {
      "type": "Feature",
      "properties": {
        "@id": "way/624934620",
        "access": "customers",
        "amenity": "parking",
        "name": "Parkir Stasiun Tanjung Karang",
        "parking": "surface"
      },
      "geometry": {
        "type": "Polygon",
        "coordinates": [
          [
            [
              105.2595579,
              -5.4092918
            ],
            [
              105.2597508,
              -5.4093159
            ],
            [
              105.2597996,
              -5.4089916
            ],
            [
              105.2596015,
              -5.4089763
            ],
            [
              105.2595579,
              -5.4092918
            ]
          ]
        ]
      },
      "id": "way/624934620"
    },
    {
      "type": "Feature",
      "properties": {
        "@id": "way/625291220",
        "amenity": "parking"
      },
      "geometry": {
        "type": "Polygon",
        "coordinates": [
          [
            [
              105.2402781,
              -5.3625385
            ],
            [
              105.2398768,
              -5.3630046
            ],
            [
              105.240717,
              -5.3631794
            ],
            [
              105.2407671,
              -5.3629006
            ],
            [
              105.2402781,
              -5.3625385
            ]
          ]
        ]
      },
      "id": "way/625291220"
    },
    {
      "type": "Feature",
      "properties": {
        "@id": "way/625291223",
        "amenity": "parking"
      },
      "geometry": {
        "type": "Polygon",
        "coordinates": [
          [
            [
              105.2390827,
              -5.3624886
            ],
            [
              105.2390284,
              -5.3626551
            ],
            [
              105.2394129,
              -5.3629505
            ],
            [
              105.2397138,
              -5.362963
            ],
            [
              105.2390827,
              -5.3624886
            ]
          ]
        ]
      },
      "id": "way/625291223"
    },
    {
      "type": "Feature",
      "properties": {
        "@id": "way/625291225",
        "amenity": "parking"
      },
      "geometry": {
        "type": "Polygon",
        "coordinates": [
          [
            [
              105.2393366,
              -5.3618581
            ],
            [
              105.2390858,
              -5.362449
            ],
            [
              105.2392363,
              -5.3625572
            ],
            [
              105.2396334,
              -5.3620912
            ],
            [
              105.2393366,
              -5.3618581
            ]
          ]
        ]
      },
      "id": "way/625291225"
    },
    {
      "type": "Feature",
      "properties": {
        "@id": "way/625291227",
        "amenity": "parking"
      },
      "geometry": {
        "type": "Polygon",
        "coordinates": [
          [
            [
              105.2408181,
              -5.3617773
            ],
            [
              105.2406126,
              -5.3620198
            ],
            [
              105.2409703,
              -5.3622851
            ],
            [
              105.2411708,
              -5.362035
            ],
            [
              105.2408181,
              -5.3617773
            ]
          ]
        ]
      },
      "id": "way/625291227"
    },
    {
      "type": "Feature",
      "properties": {
        "@id": "way/625291245",
        "amenity": "parking"
      },
      "geometry": {
        "type": "Polygon",
        "coordinates": [
          [
            [
              105.2424535,
              -5.3619307
            ],
            [
              105.2427139,
              -5.3621407
            ],
            [
              105.2428092,
              -5.3620436
            ],
            [
              105.2424612,
              -5.3617444
            ],
            [
              105.2422817,
              -5.3617828
            ],
            [
              105.2424535,
              -5.3619307
            ]
          ]
        ]
      },
      "id": "way/625291245"
    },
    {
      "type": "Feature",
      "properties": {
        "@id": "way/625291258",
        "amenity": "parking"
      },
      "geometry": {
        "type": "Polygon",
        "coordinates": [
          [
            [
              105.2420182,
              -5.3623335
            ],
            [
              105.2419615,
              -5.3623786
            ],
            [
              105.2421798,
              -5.3625875
            ],
            [
              105.2422422,
              -5.3625395
            ],
            [
              105.2420182,
              -5.3623335
            ]
          ]
        ]
      },
      "id": "way/625291258"
    },
    {
      "type": "Feature",
      "properties": {
        "@id": "way/625291262",
        "amenity": "parking"
      },
      "geometry": {
        "type": "Polygon",
        "coordinates": [
          [
            [
              105.242603,
              -5.362952
            ],
            [
              105.2424017,
              -5.3627719
            ],
            [
              105.2423204,
              -5.3628326
            ],
            [
              105.242544,
              -5.3630248
            ],
            [
              105.242603,
              -5.362952
            ]
          ]
        ]
      },
      "id": "way/625291262"
    },
    {
      "type": "Feature",
      "properties": {
        "@id": "way/625291304",
        "amenity": "parking"
      },
      "geometry": {
        "type": "Polygon",
        "coordinates": [
          [
            [
              105.2460127,
              -5.3665606
            ],
            [
              105.2461947,
              -5.3666873
            ],
            [
              105.2461576,
              -5.3667608
            ],
            [
              105.2462911,
              -5.3668509
            ],
            [
              105.2464943,
              -5.3666398
            ],
            [
              105.2463558,
              -5.3664678
            ],
            [
              105.2466209,
              -5.3660807
            ],
            [
              105.2465606,
              -5.3660328
            ],
            [
              105.2463088,
              -5.3663715
            ],
            [
              105.246185,
              -5.3663143
            ],
            [
              105.2460127,
              -5.3665606
            ]
          ]
        ]
      },
      "id": "way/625291304"
    },
    {
      "type": "Feature",
      "properties": {
        "@id": "way/625291316",
        "amenity": "parking"
      },
      "geometry": {
        "type": "Polygon",
        "coordinates": [
          [
            [
              105.2440337,
              -5.3664892
            ],
            [
              105.2445851,
              -5.366889
            ],
            [
              105.2452624,
              -5.3673425
            ],
            [
              105.2453643,
              -5.3671993
            ],
            [
              105.2441476,
              -5.3663639
            ],
            [
              105.2440337,
              -5.3664892
            ]
          ]
        ]
      },
      "id": "way/625291316"
    },
    {
      "type": "Feature",
      "properties": {
        "@id": "way/633006958",
        "access": "yes",
        "amenity": "parking",
        "fee": "no",
        "parking": "surface",
        "surface": "unpaved"
      },
      "geometry": {
        "type": "Polygon",
        "coordinates": [
          [
            [
              105.2663665,
              -5.4496884
            ],
            [
              105.2662898,
              -5.4497268
            ],
            [
              105.2663595,
              -5.449881
            ],
            [
              105.2667409,
              -5.4497043
            ],
            [
              105.2667341,
              -5.4496901
            ],
            [
              105.2666475,
              -5.4495103
            ],
            [
              105.2666385,
              -5.4495132
            ],
            [
              105.2665655,
              -5.4493589
            ],
            [
              105.2664971,
              -5.4492222
            ],
            [
              105.2663587,
              -5.4492932
            ],
            [
              105.2665136,
              -5.4496185
            ],
            [
              105.2663665,
              -5.4496884
            ]
          ]
        ]
      },
      "id": "way/633006958"
    },
    {
      "type": "Feature",
      "properties": {
        "@id": "way/894151660",
        "amenity": "parking"
      },
      "geometry": {
        "type": "Polygon",
        "coordinates": [
          [
            [
              105.3035763,
              -5.385368
            ],
            [
              105.3035881,
              -5.3850192
            ],
            [
              105.303544,
              -5.3850177
            ],
            [
              105.3035453,
              -5.3849767
            ],
            [
              105.3034105,
              -5.3849722
            ],
            [
              105.3034054,
              -5.3851238
            ],
            [
              105.3034545,
              -5.3851255
            ],
            [
              105.3034512,
              -5.3852203
            ],
            [
              105.3034063,
              -5.3852188
            ],
            [
              105.3034015,
              -5.3853621
            ],
            [
              105.3035763,
              -5.385368
            ]
          ]
        ]
      },
      "id": "way/894151660"
    },
    {
      "type": "Feature",
      "properties": {
        "@id": "way/894151661",
        "amenity": "parking"
      },
      "geometry": {
        "type": "Polygon",
        "coordinates": [
          [
            [
              105.305303,
              -5.3841043
            ],
            [
              105.3052599,
              -5.3845359
            ],
            [
              105.3054338,
              -5.3845531
            ],
            [
              105.3054472,
              -5.3844192
            ],
            [
              105.3054072,
              -5.3844152
            ],
            [
              105.3054159,
              -5.3843276
            ],
            [
              105.3054585,
              -5.3843318
            ],
            [
              105.3054795,
              -5.3841218
            ],
            [
              105.305303,
              -5.3841043
            ]
          ]
        ]
      },
      "id": "way/894151661"
    },
    {
      "type": "Feature",
      "properties": {
        "@id": "way/894151662",
        "amenity": "parking"
      },
      "geometry": {
        "type": "Polygon",
        "coordinates": [
          [
            [
              105.3048174,
              -5.3822954
            ],
            [
              105.3048107,
              -5.3825638
            ],
            [
              105.3049743,
              -5.3825731
            ],
            [
              105.3049837,
              -5.3823849
            ],
            [
              105.3052492,
              -5.3823889
            ],
            [
              105.3052479,
              -5.3822994
            ],
            [
              105.3048174,
              -5.3822954
            ]
          ]
        ]
      },
      "id": "way/894151662"
    },
    {
      "type": "Feature",
      "properties": {
        "@id": "way/894151663",
        "amenity": "parking"
      },
      "geometry": {
        "type": "Polygon",
        "coordinates": [
          [
            [
              105.3031119,
              -5.3810162
            ],
            [
              105.3031092,
              -5.3810809
            ],
            [
              105.3030534,
              -5.3810785
            ],
            [
              105.3030475,
              -5.3812158
            ],
            [
              105.3034304,
              -5.3812321
            ],
            [
              105.3034391,
              -5.3810301
            ],
            [
              105.3031119,
              -5.3810162
            ]
          ]
        ]
      },
      "id": "way/894151663"
    },
    {
      "type": "Feature",
      "properties": {
        "@id": "way/924770262",
        "amenity": "parking"
      },
      "geometry": {
        "type": "Polygon",
        "coordinates": [
          [
            [
              105.2515005,
              -5.3797631
            ],
            [
              105.2517794,
              -5.3800013
            ],
            [
              105.2525345,
              -5.3791245
            ],
            [
              105.2521848,
              -5.378826
            ],
            [
              105.2519226,
              -5.3791304
            ],
            [
              105.2520809,
              -5.3792656
            ],
            [
              105.2518022,
              -5.3795893
            ],
            [
              105.2517146,
              -5.3795145
            ],
            [
              105.2515005,
              -5.3797631
            ]
          ]
        ]
      },
      "id": "way/924770262"
    },
    {
      "type": "Feature",
      "properties": {
        "@id": "way/938337652",
        "amenity": "parking"
      },
      "geometry": {
        "type": "Polygon",
        "coordinates": [
          [
            [
              105.252378,
              -5.3779343
            ],
            [
              105.2525111,
              -5.3777666
            ],
            [
              105.2524526,
              -5.3777206
            ],
            [
              105.2524868,
              -5.3776776
            ],
            [
              105.2523537,
              -5.3775729
            ],
            [
              105.2521864,
              -5.3777836
            ],
            [
              105.252378,
              -5.3779343
            ]
          ]
        ]
      },
      "id": "way/938337652"
    },
    {
      "type": "Feature",
      "properties": {
        "@id": "way/984257555",
        "amenity": "parking"
      },
      "geometry": {
        "type": "Polygon",
        "coordinates": [
          [
            [
              105.2478942,
              -5.3685615
            ],
            [
              105.2480499,
              -5.3687973
            ],
            [
              105.2482408,
              -5.3686674
            ],
            [
              105.2480594,
              -5.3683719
            ],
            [
              105.2478942,
              -5.3685615
            ]
          ]
        ]
      },
      "id": "way/984257555"
    },
    {
      "type": "Feature",
      "properties": {
        "@id": "way/984257556",
        "amenity": "parking"
      },
      "geometry": {
        "type": "Polygon",
        "coordinates": [
          [
            [
              105.2469288,
              -5.3684289
            ],
            [
              105.2471391,
              -5.3685495
            ],
            [
              105.2474558,
              -5.368364
            ],
            [
              105.247504,
              -5.3683051
            ],
            [
              105.2472357,
              -5.3681315
            ],
            [
              105.247069,
              -5.3681728
            ],
            [
              105.2469288,
              -5.3684289
            ]
          ]
        ]
      },
      "id": "way/984257556"
    },
    {
      "type": "Feature",
      "properties": {
        "@id": "way/984257557",
        "amenity": "parking"
      },
      "geometry": {
        "type": "Polygon",
        "coordinates": [
          [
            [
              105.2466126,
              -5.3685528
            ],
            [
              105.2468478,
              -5.3685768
            ],
            [
              105.2469288,
              -5.3684289
            ],
            [
              105.247069,
              -5.3681728
            ],
            [
              105.2472078,
              -5.3680414
            ],
            [
              105.2469501,
              -5.3679005
            ],
            [
              105.2467382,
              -5.3681142
            ],
            [
              105.2465826,
              -5.3683145
            ],
            [
              105.2466126,
              -5.3685528
            ]
          ]
        ]
      },
      "id": "way/984257557"
    },
    {
      "type": "Feature",
      "properties": {
        "@id": "way/984257558",
        "amenity": "parking"
      },
      "geometry": {
        "type": "Polygon",
        "coordinates": [
          [
            [
              105.2448472,
              -5.3629241
            ],
            [
              105.2447587,
              -5.363087
            ],
            [
              105.2452791,
              -5.3634956
            ],
            [
              105.2453622,
              -5.3633461
            ],
            [
              105.2452496,
              -5.3632045
            ],
            [
              105.2448472,
              -5.3629241
            ]
          ]
        ]
      },
      "id": "way/984257558"
    },
    {
      "type": "Feature",
      "properties": {
        "@id": "way/1028249577",
        "amenity": "parking",
        "layer": "-1",
        "parking": "underground"
      },
      "geometry": {
        "type": "Polygon",
        "coordinates": [
          [
            [
              105.250972,
              -5.425388
            ],
            [
              105.2511061,
              -5.4253941
            ],
            [
              105.2511244,
              -5.4250339
            ],
            [
              105.2509831,
              -5.4250278
            ],
            [
              105.2509735,
              -5.4253403
            ],
            [
              105.250972,
              -5.425388
            ]
          ]
        ]
      },
      "id": "way/1028249577"
    },
    {
      "type": "Feature",
      "properties": {
        "@id": "way/1063087387",
        "amenity": "parking"
      },
      "geometry": {
        "type": "Polygon",
        "coordinates": [
          [
            [
              105.2670385,
              -5.4416017
            ],
            [
              105.266773,
              -5.4419328
            ],
            [
              105.2669258,
              -5.4420596
            ],
            [
              105.2672504,
              -5.4417326
            ],
            [
              105.2670385,
              -5.4416017
            ]
          ]
        ]
      },
      "id": "way/1063087387"
    },
    {
      "type": "Feature",
      "properties": {
        "@id": "way/1063087389",
        "amenity": "parking"
      },
      "geometry": {
        "type": "Polygon",
        "coordinates": [
          [
            [
              105.2661507,
              -5.4417279
            ],
            [
              105.266087,
              -5.44178
            ],
            [
              105.2661795,
              -5.4418881
            ],
            [
              105.2662459,
              -5.4418307
            ],
            [
              105.2661507,
              -5.4417279
            ]
          ]
        ]
      },
      "id": "way/1063087389"
    },
    {
      "type": "Feature",
      "properties": {
        "@id": "way/1063093366",
        "amenity": "parking"
      },
      "geometry": {
        "type": "Polygon",
        "coordinates": [
          [
            [
              105.2675173,
              -5.4169725
            ],
            [
              105.2676408,
              -5.4173238
            ],
            [
              105.2678203,
              -5.4172613
            ],
            [
              105.2676968,
              -5.4169099
            ],
            [
              105.2675173,
              -5.4169725
            ]
          ]
        ]
      },
      "id": "way/1063093366"
    },
    {
      "type": "Feature",
      "properties": {
        "@id": "way/1063094452",
        "amenity": "parking"
      },
      "geometry": {
        "type": "Polygon",
        "coordinates": [
          [
            [
              105.2673818,
              -5.4175661
            ],
            [
              105.2674609,
              -5.4177437
            ],
            [
              105.267587,
              -5.4176903
            ],
            [
              105.2675012,
              -5.4175234
            ],
            [
              105.2673818,
              -5.4175661
            ]
          ]
        ]
      },
      "id": "way/1063094452"
    },
    {
      "type": "Feature",
      "properties": {
        "@id": "way/1063101867",
        "access": "yes",
        "amenity": "parking",
        "parking_space": "normal"
      },
      "geometry": {
        "type": "Polygon",
        "coordinates": [
          [
            [
              105.2665914,
              -5.4227657
            ],
            [
              105.2665909,
              -5.4228219
            ],
            [
              105.267324,
              -5.422845
            ],
            [
              105.2673276,
              -5.4227956
            ],
            [
              105.2665914,
              -5.4227657
            ]
          ]
        ]
      },
      "id": "way/1063101867"
    },
    {
      "type": "Feature",
      "properties": {
        "@id": "way/1063102538",
        "access": "yes",
        "amenity": "parking",
        "fee": "no",
        "parking": "surface",
        "surface": "paved"
      },
      "geometry": {
        "type": "Polygon",
        "coordinates": [
          [
            [
              105.26557,
              -5.4224894
            ],
            [
              105.2655619,
              -5.4225703
            ],
            [
              105.2659949,
              -5.4225906
            ],
            [
              105.266001,
              -5.4224975
            ],
            [
              105.26557,
              -5.4224894
            ]
          ]
        ]
      },
      "id": "way/1063102538"
    },
    {
      "type": "Feature",
      "properties": {
        "@id": "way/1063105398",
        "amenity": "parking"
      },
      "geometry": {
        "type": "Polygon",
        "coordinates": [
          [
            [
              105.2624299,
              -5.4181583
            ],
            [
              105.2624498,
              -5.4183245
            ],
            [
              105.2625245,
              -5.4183227
            ],
            [
              105.2625338,
              -5.4181606
            ],
            [
              105.2624299,
              -5.4181583
            ]
          ]
        ]
      },
      "id": "way/1063105398"
    },
    {
      "type": "Feature",
      "properties": {
        "@id": "way/1063106536",
        "amenity": "parking",
        "parking": "surface"
      },
      "geometry": {
        "type": "Polygon",
        "coordinates": [
          [
            [
              105.2623031,
              -5.416977
            ],
            [
              105.2622199,
              -5.4170211
            ],
            [
              105.2622535,
              -5.4171603
            ],
            [
              105.2623438,
              -5.4171321
            ],
            [
              105.2624517,
              -5.4170634
            ],
            [
              105.2624305,
              -5.4170475
            ],
            [
              105.2623031,
              -5.416977
            ]
          ]
        ]
      },
      "id": "way/1063106536"
    },
    {
      "type": "Feature",
      "properties": {
        "@id": "way/1063135639",
        "access": "yes",
        "amenity": "parking",
        "parking": "surface"
      },
      "geometry": {
        "type": "Polygon",
        "coordinates": [
          [
            [
              105.2672726,
              -5.4292172
            ],
            [
              105.2672203,
              -5.4294722
            ],
            [
              105.2674376,
              -5.4294855
            ],
            [
              105.2674845,
              -5.4292399
            ],
            [
              105.2672726,
              -5.4292172
            ]
          ]
        ]
      },
      "id": "way/1063135639"
    },
    {
      "type": "Feature",
      "properties": {
        "@id": "way/1063137125",
        "access": "yes",
        "amenity": "parking"
      },
      "geometry": {
        "type": "Polygon",
        "coordinates": [
          [
            [
              105.2671969,
              -5.4430364
            ],
            [
              105.2669562,
              -5.4433077
            ],
            [
              105.2670297,
              -5.4433614
            ],
            [
              105.2672703,
              -5.443091
            ],
            [
              105.2671969,
              -5.4430364
            ]
          ]
        ]
      },
      "id": "way/1063137125"
    },
    {
      "type": "Feature",
      "properties": {
        "@id": "way/1063137654",
        "amenity": "parking",
        "surface": "ground"
      },
      "geometry": {
        "type": "Polygon",
        "coordinates": [
          [
            [
              105.2588731,
              -5.4241883
            ],
            [
              105.2585602,
              -5.4242384
            ],
            [
              105.2585975,
              -5.4244692
            ],
            [
              105.2589104,
              -5.424419
            ],
            [
              105.2588731,
              -5.4241883
            ]
          ]
        ]
      },
      "id": "way/1063137654"
    },
    {
      "type": "Feature",
      "properties": {
        "@id": "way/1063159925",
        "access": "yes",
        "amenity": "parking",
        "parking": "surface",
        "surface": "asphalt"
      },
      "geometry": {
        "type": "Polygon",
        "coordinates": [
          [
            [
              105.2584331,
              -5.44103
            ],
            [
              105.2584554,
              -5.4412223
            ],
            [
              105.2587319,
              -5.4411939
            ],
            [
              105.2586994,
              -5.4409632
            ],
            [
              105.2584331,
              -5.44103
            ]
          ]
        ]
      },
      "id": "way/1063159925"
    },
    {
      "type": "Feature",
      "properties": {
        "@id": "way/1063313153",
        "access": "yes",
        "amenity": "parking",
        "capacity:disabled": "0",
        "parking": "surface",
        "surface": "paving_stones"
      },
      "geometry": {
        "type": "Polygon",
        "coordinates": [
          [
            [
              105.2720065,
              -5.4080044
            ],
            [
              105.2720263,
              -5.4080959
            ],
            [
              105.2721418,
              -5.4080652
            ],
            [
              105.2721131,
              -5.407981
            ],
            [
              105.2720065,
              -5.4080044
            ]
          ]
        ]
      },
      "id": "way/1063313153"
    },
    {
      "type": "Feature",
      "properties": {
        "@id": "way/1063334725",
        "access": "yes",
        "amenity": "parking",
        "parking": "surface",
        "surface": "asphalt"
      },
      "geometry": {
        "type": "Polygon",
        "coordinates": [
          [
            [
              105.2760183,
              -5.4054428
            ],
            [
              105.2762539,
              -5.4059807
            ],
            [
              105.2763794,
              -5.405917
            ],
            [
              105.2761617,
              -5.4053816
            ],
            [
              105.2760183,
              -5.4054428
            ]
          ]
        ]
      },
      "id": "way/1063334725"
    },
    {
      "type": "Feature",
      "properties": {
        "@id": "way/1063374518",
        "access": "yes",
        "amenity": "parking",
        "parking": "surface",
        "surface": "asphalt"
      },
      "geometry": {
        "type": "Polygon",
        "coordinates": [
          [
            [
              105.2851392,
              -5.4362579
            ],
            [
              105.2850951,
              -5.4365318
            ],
            [
              105.2854564,
              -5.4365893
            ],
            [
              105.2855004,
              -5.4363155
            ],
            [
              105.2851392,
              -5.4362579
            ]
          ]
        ]
      },
      "id": "way/1063374518"
    },
    {
      "type": "Feature",
      "properties": {
        "@id": "way/1063448434",
        "access": "yes",
        "amenity": "parking",
        "parking": "surface",
        "surface": "asphalt"
      },
      "geometry": {
        "type": "Polygon",
        "coordinates": [
          [
            [
              105.2221534,
              -5.3944171
            ],
            [
              105.2227973,
              -5.3942055
            ],
            [
              105.2225909,
              -5.3936257
            ],
            [
              105.2219593,
              -5.3938527
            ],
            [
              105.2221534,
              -5.3944171
            ]
          ]
        ]
      },
      "id": "way/1063448434"
    },
    {
      "type": "Feature",
      "properties": {
        "@id": "way/1063448444",
        "access": "yes",
        "amenity": "parking",
        "parking": "surface",
        "surface": "asphalt"
      },
      "geometry": {
        "type": "Polygon",
        "coordinates": [
          [
            [
              105.2227372,
              -5.3942778
            ],
            [
              105.2221762,
              -5.3944648
            ],
            [
              105.2222472,
              -5.3946759
            ],
            [
              105.2228082,
              -5.3944889
            ],
            [
              105.2227372,
              -5.3942778
            ]
          ]
        ]
      },
      "id": "way/1063448444"
    },
    {
      "type": "Feature",
      "properties": {
        "@id": "way/1063454005",
        "access": "yes",
        "amenity": "parking",
        "parking": "surface",
        "surface": "paving_stones"
      },
      "geometry": {
        "type": "Polygon",
        "coordinates": [
          [
            [
              105.2130283,
              -5.397215
            ],
            [
              105.2127674,
              -5.3976084
            ],
            [
              105.2128619,
              -5.3976705
            ],
            [
              105.2131031,
              -5.3973068
            ],
            [
              105.2130989,
              -5.3972614
            ],
            [
              105.2130283,
              -5.397215
            ]
          ]
        ]
      },
      "id": "way/1063454005"
    },
    {
      "type": "Feature",
      "properties": {
        "@id": "way/1063795412",
        "amenity": "parking",
        "parking": "surface"
      },
      "geometry": {
        "type": "Polygon",
        "coordinates": [
          [
            [
              105.2709276,
              -5.429542
            ],
            [
              105.2709221,
              -5.4296604
            ],
            [
              105.2713088,
              -5.4296782
            ],
            [
              105.271323,
              -5.4293712
            ],
            [
              105.2711634,
              -5.4293639
            ],
            [
              105.2711546,
              -5.4295524
            ],
            [
              105.2709276,
              -5.429542
            ]
          ]
        ]
      },
      "id": "way/1063795412"
    },
    {
      "type": "Feature",
      "properties": {
        "@id": "way/1074980027",
        "amenity": "parking"
      },
      "geometry": {
        "type": "Polygon",
        "coordinates": [
          [
            [
              105.2834758,
              -5.4112284
            ],
            [
              105.2834751,
              -5.4112579
            ],
            [
              105.2837225,
              -5.4112638
            ],
            [
              105.2837232,
              -5.4112342
            ],
            [
              105.2834758,
              -5.4112284
            ]
          ]
        ]
      },
      "id": "way/1074980027"
    },
    {
      "type": "Feature",
      "properties": {
        "@id": "way/1301071257",
        "access": "private",
        "amenity": "parking",
        "operator": "Area Parkir DT SBR",
        "operator:type": "private"
      },
      "geometry": {
        "type": "Polygon",
        "coordinates": [
          [
            [
              105.2917012,
              -5.4455666
            ],
            [
              105.2916232,
              -5.4458209
            ],
            [
              105.2926497,
              -5.4461128
            ],
            [
              105.2926973,
              -5.4459664
            ],
            [
              105.2928997,
              -5.4458339
            ],
            [
              105.2930199,
              -5.4453927
            ],
            [
              105.2929406,
              -5.4453772
            ],
            [
              105.2927383,
              -5.4453251
            ],
            [
              105.2926611,
              -5.4456254
            ],
            [
              105.2922916,
              -5.4455285
            ],
            [
              105.2922341,
              -5.4457224
            ],
            [
              105.2917012,
              -5.4455666
            ]
          ]
        ]
      },
      "id": "way/1301071257"
    },
    {
      "type": "Feature",
      "properties": {
        "@id": "way/1301087479",
        "access": "private",
        "amenity": "parking",
        "operator": "Parkir Mobil",
        "operator:type": "private"
      },
      "geometry": {
        "type": "Polygon",
        "coordinates": [
          [
            [
              105.293226,
              -5.4448203
            ],
            [
              105.2932049,
              -5.4448872
            ],
            [
              105.2932353,
              -5.444897
            ],
            [
              105.2932563,
              -5.4448291
            ],
            [
              105.293226,
              -5.4448203
            ]
          ]
        ]
      },
      "id": "way/1301087479"
    },
    {
      "type": "Feature",
      "properties": {
        "@id": "way/1316858976",
        "amenity": "parking"
      },
      "geometry": {
        "type": "Polygon",
        "coordinates": [
          [
            [
              105.2959893,
              -5.4488116
            ],
            [
              105.2957658,
              -5.4492773
            ],
            [
              105.2956984,
              -5.4494177
            ],
            [
              105.2959622,
              -5.4495551
            ],
            [
              105.2962629,
              -5.4489441
            ],
            [
              105.2959893,
              -5.4488116
            ]
          ]
        ]
      },
      "id": "way/1316858976"
    },
    {
      "type": "Feature",
      "properties": {
        "@id": "way/1316858979",
        "access": "private",
        "amenity": "parking"
      },
      "geometry": {
        "type": "Polygon",
        "coordinates": [
          [
            [
              105.2973138,
              -5.4492341
            ],
            [
              105.2964396,
              -5.4487413
            ],
            [
              105.2963705,
              -5.4488752
            ],
            [
              105.2972409,
              -5.4493586
            ],
            [
              105.2973138,
              -5.4492341
            ]
          ]
        ]
      },
      "id": "way/1316858979"
    },
    {
      "type": "Feature",
      "properties": {
        "@id": "way/1352466765",
        "amenity": "parking"
      },
      "geometry": {
        "type": "Polygon",
        "coordinates": [
          [
            [
              105.2801178,
              -5.4427599
            ],
            [
              105.2800717,
              -5.4427682
            ],
            [
              105.2795799,
              -5.4428567
            ],
            [
              105.2795805,
              -5.4434547
            ],
            [
              105.2796158,
              -5.443637
            ],
            [
              105.2796343,
              -5.443814
            ],
            [
              105.2798482,
              -5.4437989
            ],
            [
              105.2800394,
              -5.4437939
            ],
            [
              105.2801921,
              -5.4437355
            ],
            [
              105.2802191,
              -5.443706
            ],
            [
              105.2801808,
              -5.4435361
            ],
            [
              105.2801697,
              -5.4434114
            ],
            [
              105.2801492,
              -5.4432947
            ],
            [
              105.2800867,
              -5.4431333
            ],
            [
              105.2800762,
              -5.4429993
            ],
            [
              105.2800796,
              -5.4429335
            ],
            [
              105.2800985,
              -5.4428508
            ],
            [
              105.2801178,
              -5.4427599
            ]
          ]
        ]
      },
      "id": "way/1352466765"
    },
    {
      "type": "Feature",
      "properties": {
        "@id": "way/1506957392",
        "amenity": "parking",
        "charge": "2000-5000",
        "operator": "Taman Parkir Enggal",
        "operator:type": "public"
      },
      "geometry": {
        "type": "Polygon",
        "coordinates": [
          [
            [
              105.2586605,
              -5.4210772
            ],
            [
              105.2586579,
              -5.4216433
            ],
            [
              105.2592662,
              -5.4216461
            ],
            [
              105.2592688,
              -5.42108
            ],
            [
              105.2586605,
              -5.4210772
            ]
          ]
        ]
      },
      "id": "way/1506957392"
    },
    {
      "type": "Feature",
      "properties": {
        "@id": "node/9765870546",
        "amenity": "parking",
        "parking": "surface"
      },
      "geometry": {
        "type": "Point",
        "coordinates": [
          105.266001,
          -5.4224975
        ]
      },
      "id": "node/9765870546"
    },
    {
      "type": "Feature",
      "properties": {
        "@id": "node/9772852576",
        "access": "yes",
        "amenity": "parking",
        "parking": "surface",
        "surface": "paving_stones"
      },
      "geometry": {
        "type": "Point",
        "coordinates": [
          105.2590805,
          -5.4030321
        ]
      },
      "id": "node/9772852576"
    },
    {
      "type": "Feature",
      "properties": {
        "@id": "node/9776385322",
        "access": "yes",
        "amenity": "parking",
        "surface": "asphalt"
      },
      "geometry": {
        "type": "Point",
        "coordinates": [
          105.2485269,
          -5.431657
        ]
      },
      "id": "node/9776385322"
    },
    {
      "type": "Feature",
      "properties": {
        "@id": "node/9776385565",
        "amenity": "parking",
        "parking": "surface"
      },
      "geometry": {
        "type": "Point",
        "coordinates": [
          105.2525949,
          -5.4360638
        ]
      },
      "id": "node/9776385565"
    },
    {
      "type": "Feature",
      "properties": {
        "@id": "node/9782100387",
        "amenity": "parking",
        "parking": "surface"
      },
      "geometry": {
        "type": "Point",
        "coordinates": [
          105.2888813,
          -5.3855606
        ]
      },
      "id": "node/9782100387"
    },
    {
      "type": "Feature",
      "properties": {
        "@id": "node/9782103700",
        "amenity": "parking",
        "parking": "surface"
      },
      "geometry": {
        "type": "Point",
        "coordinates": [
          105.2873385,
          -5.385698
        ]
      },
      "id": "node/9782103700"
    },
    {
      "type": "Feature",
      "properties": {
        "@id": "node/9784314653",
        "amenity": "parking",
        "name": "Selebriti Entertainment"
      },
      "geometry": {
        "type": "Point",
        "coordinates": [
          105.2759855,
          -5.4273216
        ]
      },
      "id": "node/9784314653"
    },
    {
      "type": "Feature",
      "properties": {
        "@id": "node/9788605549",
        "amenity": "parking",
        "parking": "surface"
      },
      "geometry": {
        "type": "Point",
        "coordinates": [
          105.3324011,
          -5.4184233
        ]
      },
      "id": "node/9788605549"
    },
    {
      "type": "Feature",
      "properties": {
        "@id": "node/9788676531",
        "amenity": "parking",
        "parking": "surface"
      },
      "geometry": {
        "type": "Point",
        "coordinates": [
          105.3355895,
          -5.4208438
        ]
      },
      "id": "node/9788676531"
    },
    {
      "type": "Feature",
      "properties": {
        "@id": "node/9794009284",
        "amenity": "parking",
        "parking": "surface"
      },
      "geometry": {
        "type": "Point",
        "coordinates": [
          105.2238094,
          -5.3748949
        ]
      },
      "id": "node/9794009284"
    },
    {
      "type": "Feature",
      "properties": {
        "@id": "node/9794012976",
        "amenity": "parking",
        "parking": "surface"
      },
      "geometry": {
        "type": "Point",
        "coordinates": [
          105.2298382,
          -5.3672061
        ]
      },
      "id": "node/9794012976"
    },
    {
      "type": "Feature",
      "properties": {
        "@id": "node/9794020924",
        "amenity": "parking",
        "parking": "surface"
      },
      "geometry": {
        "type": "Point",
        "coordinates": [
          105.2236836,
          -5.3742958
        ]
      },
      "id": "node/9794020924"
    },
    {
      "type": "Feature",
      "properties": {
        "@id": "node/9794109131",
        "amenity": "parking",
        "parking": "surface"
      },
      "geometry": {
        "type": "Point",
        "coordinates": [
          105.2208973,
          -5.3854273
        ]
      },
      "id": "node/9794109131"
    },
    {
      "type": "Feature",
      "properties": {
        "@id": "node/9795391492",
        "amenity": "parking",
        "parking": "surface"
      },
      "geometry": {
        "type": "Point",
        "coordinates": [
          105.2867581,
          -5.436746
        ]
      },
      "id": "node/9795391492"
    },
    {
      "type": "Feature",
      "properties": {
        "@id": "node/9795443655",
        "amenity": "parking",
        "parking": "surface"
      },
      "geometry": {
        "type": "Point",
        "coordinates": [
          105.2888867,
          -5.4398187
        ]
      },
      "id": "node/9795443655"
    },
    {
      "type": "Feature",
      "properties": {
        "@id": "node/9795448220",
        "amenity": "parking",
        "parking": "surface"
      },
      "geometry": {
        "type": "Point",
        "coordinates": [
          105.2897641,
          -5.4394503
        ]
      },
      "id": "node/9795448220"
    },
    {
      "type": "Feature",
      "properties": {
        "@id": "node/9796105400",
        "amenity": "parking",
        "parking": "surface"
      },
      "geometry": {
        "type": "Point",
        "coordinates": [
          105.2447477,
          -5.464272
        ]
      },
      "id": "node/9796105400"
    },
    {
      "type": "Feature",
      "properties": {
        "@id": "node/9796771992",
        "amenity": "parking",
        "parking": "surface"
      },
      "geometry": {
        "type": "Point",
        "coordinates": [
          105.2531708,
          -5.4210264
        ]
      },
      "id": "node/9796771992"
    },
    {
      "type": "Feature",
      "properties": {
        "@id": "node/9796792185",
        "amenity": "parking",
        "parking": "surface"
      },
      "geometry": {
        "type": "Point",
        "coordinates": [
          105.2592115,
          -5.4190287
        ]
      },
      "id": "node/9796792185"
    },
    {
      "type": "Feature",
      "properties": {
        "@id": "node/12518416928",
        "amenity": "parking",
        "operator": "Gedung Parkir Pemerintah Kota Bandar Lampung",
        "operator:type": "public"
      },
      "geometry": {
        "type": "Point",
        "coordinates": [
          105.261961,
          -5.4295543
        ]
      },
      "id": "node/12518416928"
    },
    {
      "type": "Feature",
      "properties": {
        "@id": "node/13174900453",
        "amenity": "parking",
        "name": "BC Maxim Gojek Grab Kedai Apak"
      },
      "geometry": {
        "type": "Point",
        "coordinates": [
          105.2752585,
          -5.4264481
        ]
      },
      "id": "node/13174900453"
    }
  ]
}